HUANJING 1A (HJ-1A)     
1 33320U 08041A   26177.20156846  .00001958  00000+0  24042-3 0  9996
2 33320  97.6684 162.6915 0020574 106.9990 253.3481 14.84008322959747
HUANJING 1B (HJ-1B)     
1 33321U 08041B   26177.24220981  .00000501  00000+0  66705-4 0  9999
2 33321  97.6520 165.8747 0036834 151.3833 208.9413 14.83329134959759
HODOYOSHI-4             
1 40011U 14033B   26177.17867162  .00000870  00000+0  99770-4 0  9998
2 40011  97.5456   1.5671 0022142 276.8346  83.0353 14.88143934650144
HODOYOSHI-3             
1 40015U 14033F   26177.00961441  .00000998  00000+0  12104-3 0  9995
2 40015  97.6424 339.6953 0031946 327.7644  32.1618 14.85405053648934
HIMAWARI-8              
1 40267U 14060A   26176.99948779 -.00000265  00000+0  00000+0 0  9996
2 40267   0.0152 307.3027 0001539 150.6858 316.6040  1.00270734 42844
HIMAWARI-9              
1 41836U 16064A   26176.98059881  .00000000  00000+0  00000+0 0  9997
2 41836   0.0245  35.1510 0001217  79.8027 292.9390  1.00269096 35290
ICESAT-2                
1 43613U 18070A   26177.12544589  .00011232  00000+0  40880-3 0  9995
2 43613  92.0081 293.3938 0006231  98.8680 261.3275 15.28177760433827
HYSIS                   
1 43719U 18096A   26177.14408142  .00001170  00000+0  16682-3 0  9999
2 43719  97.9839 243.8220 0001830  94.4630 265.6790 14.78632868408741
ICEYE-X2                
1 43800U 18099AU  26177.17379547  .00006555  00000+0  32701-3 0  9994
2 43800  97.4355 230.8575 0008487 270.4399  89.5862 15.17821590414186
ICEYE-X11               
1 48918U 21059AR  26177.16416410  .01417996  14563-2  13536-2 0  9991
2 48918  97.6213  17.9395 0004929 253.2004 106.8740 16.12200310279431
