{
 "generated_at": "2026-06-26T08:30:21Z",
 "sources": [
  {
   "name": "CelesTrak",
   "url": "https://celestrak.org/NORAD/elements/",
   "license": "frei verfügbar; Attribution. Ursprünglich USSPACECOM/Space-Track."
  },
  {
   "name": "GCAT (J. McDowell, planet4589.org)",
   "url": "https://planet4589.org/space/gcat/",
   "license": "CC-BY 4.0"
  }
 ],
 "satellites": [
  {
   "norad": 40267,
   "name": "HIMAWARI-8",
   "intl": "2014-060A",
   "group": "weather",
   "gcat": {
    "class": "C",
    "category": "MET",
    "owner": "JMA",
    "state": "J"
   },
   "omm": {
    "OBJECT_NAME": "HIMAWARI-8",
    "OBJECT_ID": "2014-060A",
    "EPOCH": "2026-06-25T23:59:15.745056",
    "MEAN_MOTION": 1.00270734,
    "ECCENTRICITY": 0.0001539,
    "INCLINATION": 0.0152,
    "RA_OF_ASC_NODE": 307.3027,
    "ARG_OF_PERICENTER": 150.6858,
    "MEAN_ANOMALY": 316.604,
    "EPHEMERIS_TYPE": 0,
    "CLASSIFICATION_TYPE": "U",
    "NORAD_CAT_ID": 40267,
    "ELEMENT_SET_NO": 999,
    "REV_AT_EPOCH": 4284,
    "BSTAR": 0,
    "MEAN_MOTION_DOT": -0.00000265,
    "MEAN_MOTION_DDOT": 0
   }
  },
  {
   "norad": 41836,
   "name": "HIMAWARI-9",
   "intl": "2016-064A",
   "group": "weather",
   "gcat": {
    "class": "C",
    "category": "MET",
    "owner": "JMA",
    "state": "J"
   },
   "omm": {
    "OBJECT_NAME": "HIMAWARI-9",
    "OBJECT_ID": "2016-064A",
    "EPOCH": "2026-06-25T23:32:03.737184",
    "MEAN_MOTION": 1.00269096,
    "ECCENTRICITY": 0.0001217,
    "INCLINATION": 0.0245,
    "RA_OF_ASC_NODE": 35.151,
    "ARG_OF_PERICENTER": 79.8027,
    "MEAN_ANOMALY": 292.939,
    "EPHEMERIS_TYPE": 0,
    "CLASSIFICATION_TYPE": "U",
    "NORAD_CAT_ID": 41836,
    "ELEMENT_SET_NO": 999,
    "REV_AT_EPOCH": 3529,
    "BSTAR": 0,
    "MEAN_MOTION_DOT": 0,
    "MEAN_MOTION_DDOT": 0
   }
  },
  {
   "norad": 40015,
   "name": "HODOYOSHI-3",
   "intl": "2014-033F",
   "group": "resource",
   "gcat": {
    "class": null,
    "category": null,
    "owner": null,
    "state": null
   },
   "omm": {
    "OBJECT_NAME": "HODOYOSHI-3",
    "OBJECT_ID": "2014-033F",
    "EPOCH": "2026-06-26T00:13:50.685024",
    "MEAN_MOTION": 14.85405053,
    "ECCENTRICITY": 0.0031946,
    "INCLINATION": 97.6424,
    "RA_OF_ASC_NODE": 339.6953,
    "ARG_OF_PERICENTER": 327.7644,
    "MEAN_ANOMALY": 32.1618,
    "EPHEMERIS_TYPE": 0,
    "CLASSIFICATION_TYPE": "U",
    "NORAD_CAT_ID": 40015,
    "ELEMENT_SET_NO": 999,
    "REV_AT_EPOCH": 64893,
    "BSTAR": 0.00012104,
    "MEAN_MOTION_DOT": 0.00000998,
    "MEAN_MOTION_DDOT": 0
   }
  },
  {
   "norad": 40011,
   "name": "HODOYOSHI-4",
   "intl": "2014-033B",
   "group": "resource",
   "gcat": {
    "class": null,
    "category": null,
    "owner": null,
    "state": null
   },
   "omm": {
    "OBJECT_NAME": "HODOYOSHI-4",
    "OBJECT_ID": "2014-033B",
    "EPOCH": "2026-06-26T04:17:17.227968",
    "MEAN_MOTION": 14.88143934,
    "ECCENTRICITY": 0.0022142,
    "INCLINATION": 97.5456,
    "RA_OF_ASC_NODE": 1.5671,
    "ARG_OF_PERICENTER": 276.8346,
    "MEAN_ANOMALY": 83.0353,
    "EPHEMERIS_TYPE": 0,
    "CLASSIFICATION_TYPE": "U",
    "NORAD_CAT_ID": 40011,
    "ELEMENT_SET_NO": 999,
    "REV_AT_EPOCH": 65014,
    "BSTAR": 0.00009977,
    "MEAN_MOTION_DOT": 0.0000087,
    "MEAN_MOTION_DDOT": 0
   }
  },
  {
   "norad": 33320,
   "name": "HUANJING 1A (HJ-1A)",
   "intl": "2008-041A",
   "group": "resource",
   "gcat": {
    "class": null,
    "category": null,
    "owner": null,
    "state": null
   },
   "omm": {
    "OBJECT_NAME": "HUANJING 1A (HJ-1A)",
    "OBJECT_ID": "2008-041A",
    "EPOCH": "2026-06-26T04:50:15.514944",
    "MEAN_MOTION": 14.84008322,
    "ECCENTRICITY": 0.0020574,
    "INCLINATION": 97.6684,
    "RA_OF_ASC_NODE": 162.6915,
    "ARG_OF_PERICENTER": 106.999,
    "MEAN_ANOMALY": 253.3481,
    "EPHEMERIS_TYPE": 0,
    "CLASSIFICATION_TYPE": "U",
    "NORAD_CAT_ID": 33320,
    "ELEMENT_SET_NO": 999,
    "REV_AT_EPOCH": 95974,
    "BSTAR": 0.00024042,
    "MEAN_MOTION_DOT": 0.00001958,
    "MEAN_MOTION_DDOT": 0
   }
  },
  {
   "norad": 33321,
   "name": "HUANJING 1B (HJ-1B)",
   "intl": "2008-041B",
   "group": "resource",
   "gcat": {
    "class": null,
    "category": null,
    "owner": null,
    "state": null
   },
   "omm": {
    "OBJECT_NAME": "HUANJING 1B (HJ-1B)",
    "OBJECT_ID": "2008-041B",
    "EPOCH": "2026-06-26T05:48:46.927584",
    "MEAN_MOTION": 14.83329134,
    "ECCENTRICITY": 0.0036834,
    "INCLINATION": 97.652,
    "RA_OF_ASC_NODE": 165.8747,
    "ARG_OF_PERICENTER": 151.3833,
    "MEAN_ANOMALY": 208.9413,
    "EPHEMERIS_TYPE": 0,
    "CLASSIFICATION_TYPE": "U",
    "NORAD_CAT_ID": 33321,
    "ELEMENT_SET_NO": 999,
    "REV_AT_EPOCH": 95975,
    "BSTAR": 0.000066705,
    "MEAN_MOTION_DOT": 0.00000501,
    "MEAN_MOTION_DDOT": 0
   }
  },
  {
   "norad": 43719,
   "name": "HYSIS",
   "intl": "2018-096A",
   "group": "resource",
   "gcat": {
    "class": "C",
    "category": "IMG",
    "owner": "ISRO",
    "state": "IN"
   },
   "omm": {
    "OBJECT_NAME": "HYSIS",
    "OBJECT_ID": "2018-096A",
    "EPOCH": "2026-06-26T03:27:28.634688",
    "MEAN_MOTION": 14.78632868,
    "ECCENTRICITY": 0.000183,
    "INCLINATION": 97.9839,
    "RA_OF_ASC_NODE": 243.822,
    "ARG_OF_PERICENTER": 94.463,
    "MEAN_ANOMALY": 265.679,
    "EPHEMERIS_TYPE": 0,
    "CLASSIFICATION_TYPE": "U",
    "NORAD_CAT_ID": 43719,
    "ELEMENT_SET_NO": 999,
    "REV_AT_EPOCH": 40874,
    "BSTAR": 0.00016682,
    "MEAN_MOTION_DOT": 0.0000117,
    "MEAN_MOTION_DDOT": 0
   }
  },
  {
   "norad": 43613,
   "name": "ICESAT-2",
   "intl": "2018-070A",
   "group": "resource",
   "gcat": {
    "class": "C",
    "category": "SCI",
    "owner": "GSFC",
    "state": "US"
   },
   "omm": {
    "OBJECT_NAME": "ICESAT-2",
    "OBJECT_ID": "2018-070A",
    "EPOCH": "2026-06-26T03:00:38.524896",
    "MEAN_MOTION": 15.2817776,
    "ECCENTRICITY": 0.0006231,
    "INCLINATION": 92.0081,
    "RA_OF_ASC_NODE": 293.3938,
    "ARG_OF_PERICENTER": 98.868,
    "MEAN_ANOMALY": 261.3275,
    "EPHEMERIS_TYPE": 0,
    "CLASSIFICATION_TYPE": "U",
    "NORAD_CAT_ID": 43613,
    "ELEMENT_SET_NO": 999,
    "REV_AT_EPOCH": 43382,
    "BSTAR": 0.0004088,
    "MEAN_MOTION_DOT": 0.00011232,
    "MEAN_MOTION_DDOT": 0
   }
  },
  {
   "norad": 48918,
   "name": "ICEYE-X11",
   "intl": "2021-059AR",
   "group": "sar",
   "gcat": {
    "class": "B",
    "category": "IMG-R",
    "owner": "ICEYE",
    "state": "FI"
   },
   "omm": {
    "OBJECT_NAME": "ICEYE-X11",
    "OBJECT_ID": "2021-059AR",
    "EPOCH": "2026-06-26T03:56:23.778240",
    "MEAN_MOTION": 16.1220031,
    "ECCENTRICITY": 0.0004929,
    "INCLINATION": 97.6213,
    "RA_OF_ASC_NODE": 17.9395,
    "ARG_OF_PERICENTER": 253.2004,
    "MEAN_ANOMALY": 106.874,
    "EPHEMERIS_TYPE": 0,
    "CLASSIFICATION_TYPE": "U",
    "NORAD_CAT_ID": 48918,
    "ELEMENT_SET_NO": 999,
    "REV_AT_EPOCH": 27943,
    "BSTAR": 0.0013536,
    "MEAN_MOTION_DOT": 0.01417996,
    "MEAN_MOTION_DDOT": 0.0014563
   }
  },
  {
   "norad": 43800,
   "name": "ICEYE-X2",
   "intl": "2018-099AU",
   "group": "sar",
   "gcat": {
    "class": "B",
    "category": "IMG-R",
    "owner": "ICEYE",
    "state": "FI"
   },
   "omm": {
    "OBJECT_NAME": "ICEYE-X2",
    "OBJECT_ID": "2018-099AU",
    "EPOCH": "2026-06-26T04:10:15.928608",
    "MEAN_MOTION": 15.1782159,
    "ECCENTRICITY": 0.0008487,
    "INCLINATION": 97.4355,
    "RA_OF_ASC_NODE": 230.8575,
    "ARG_OF_PERICENTER": 270.4399,
    "MEAN_ANOMALY": 89.5862,
    "EPHEMERIS_TYPE": 0,
    "CLASSIFICATION_TYPE": "U",
    "NORAD_CAT_ID": 43800,
    "ELEMENT_SET_NO": 999,
    "REV_AT_EPOCH": 41418,
    "BSTAR": 0.00032701,
    "MEAN_MOTION_DOT": 0.00006555,
    "MEAN_MOTION_DDOT": 0
   }
  }
 ]
}
